STARLINK-32191          
1 60314U 24133P   25263.48747160 -.00003602  00000+0 -10965-3 0  9998
2 60314  53.1622   7.4893 0001483 103.2776 256.8390 15.30168784 65588
STARLINK-32194          
1 60315U 24133Q   25263.56754839  .00001955  00000+0  78141-4 0  9997
2 60315  53.1619   7.2804 0001194  72.9869 287.1263 15.30195260 65595
STARLINK-32192          
1 60316U 24133R   25263.46530295 -.00000103  00000+0  86434-5 0  9995
2 60316  53.1612   7.3524 0000992 100.3836 259.7277 15.30193424 65673
STARLINK-32189          
1 60317U 24133S   25263.56544947 -.00000933  00000+0 -19390-4 0  9994
2 60317  53.1627   7.2664 0001312  77.0155 283.0992 15.30179651 65686
STARLINK-32190          
1 60318U 24133T   25263.55591377  .00005221  00000+0  18818-3 0  9999
2 60318  53.1621   7.2038 0001315  84.7042 275.4109 15.30218428 65590
STARLINK-32182          
1 60319U 24133U   25263.56649786  .00000809  00000+0  39463-4 0  9996
2 60319  53.1622   7.2743 0001210  85.5799 274.5340 15.30188650 65597
STARLINK-32199          
1 60320U 24133V   25263.55910953  .00003293  00000+0  12331-3 0  9998
2 60320  53.1625   7.2253 0001202 103.7369 256.3766 15.30182232 65595
STARLINK-32198          
1 60321U 24133W   25263.56860756  .00001314  00000+0  56508-4 0  9992
2 60321  53.1614   7.2826 0001303  70.3801 289.7341 15.30188955 65689
STARLINK-31745          
1 60329U 24136A   25263.95979325  .00000276  00000+0  21450-4 0  9993
2 60329  53.1601 144.3679 0001093  78.7207 281.3917 15.30196849 64889
STARLINK-32153          
1 60330U 24136B   25263.95873851  .00001212  00000+0  53037-4 0  9999
2 60330  53.1599 144.3612 0001106  75.2249 284.8874 15.30198974 63674
STARLINK-32203          
1 60331U 24136C   25263.92294108  .00003647  00000+0  13513-3 0  9997
2 60331  53.1599 134.1940 0001016  98.2525 261.8592 15.30214827 63812
STARLINK-32171          
1 60332U 24136D   25263.90914517  .00009266  00000+0  32473-3 0  9998
2 60332  53.1585 144.0593 0000880  79.4120 280.6980 15.30185801 63675
STARLINK-32133          
1 60333U 24136E   25263.95241631  .00001880  00000+0  75597-4 0  9993
2 60333  53.1604 144.3225 0001262  69.8533 290.2604 15.30191639 63675
STARLINK-32132          
1 60334U 24136F   25263.94607462  .00000392  00000+0  25340-4 0  9999
2 60334  53.1600 144.2813 0000999  83.9099 276.2015 15.30198947 63673
STARLINK-32168          
1 60335U 24136G   25263.94290747  .00000398  00000+0  25575-4 0  9990
2 60335  53.1597 144.2607 0001173  61.5782 298.5337 15.30197482 63673
STARLINK-32079          
1 60336U 24136H   25263.93974429  .00000146  00000+0  17059-4 0  9995
2 60336  53.1596 144.2415 0001121  78.8685 281.2441 15.30191781 63677
