[{"OBJECT_NAME":"STARLINK-32191","OBJECT_ID":"2024-133P","EPOCH":"2025-09-20T11:41:57.546240","MEAN_MOTION":15.30168784,"ECCENTRICITY":0.00014834,"INCLINATION":53.1622,"RA_OF_ASC_NODE":7.4893,"ARG_OF_PERICENTER":103.2776,"MEAN_ANOMALY":256.839,"EPHEMERIS_TYPE":0,"CLASSIFICATION_TYPE":"U","NORAD_CAT_ID":60314,"ELEMENT_SET_NO":999,"REV_AT_EPOCH":6558,"BSTAR":-0.00010965125,"MEAN_MOTION_DOT":-3.602e-5,"MEAN_MOTION_DDOT":0},{"OBJECT_NAME":"STARLINK-32194","OBJECT_ID":"2024-133Q","EPOCH":"2025-09-20T13:37:16.180896","MEAN_MOTION":15.3019526,"ECCENTRICITY":0.00011942,"INCLINATION":53.1619,"RA_OF_ASC_NODE":7.2804,"ARG_OF_PERICENTER":72.9869,"MEAN_ANOMALY":287.1263,"EPHEMERIS_TYPE":0,"CLASSIFICATION_TYPE":"U","NORAD_CAT_ID":60315,"ELEMENT_SET_NO":999,"REV_AT_EPOCH":6559,"BSTAR":7.8140848e-5,"MEAN_MOTION_DOT":1.955e-5,"MEAN_MOTION_DDOT":0},{"OBJECT_NAME":"STARLINK-32192","OBJECT_ID":"2024-133R","EPOCH":"2025-09-20T11:10:02.174880","MEAN_MOTION":15.30193424,"ECCENTRICITY":9.923e-5,"INCLINATION":53.1612,"RA_OF_ASC_NODE":7.3524,"ARG_OF_PERICENTER":100.3836,"MEAN_ANOMALY":259.7277,"EPHEMERIS_TYPE":0,"CLASSIFICATION_TYPE":"U","NORAD_CAT_ID":60316,"ELEMENT_SET_NO":999,"REV_AT_EPOCH":6567,"BSTAR":8.643367e-6,"MEAN_MOTION_DOT":-1.03e-6,"MEAN_MOTION_DDOT":0},{"OBJECT_NAME":"STARLINK-32189","OBJECT_ID":"2024-133S","EPOCH":"2025-09-20T13:34:14.834208","MEAN_MOTION":15.30179651,"ECCENTRICITY":0.00013124,"INCLINATION":53.1627,"RA_OF_ASC_NODE":7.2664,"ARG_OF_PERICENTER":77.0155,"MEAN_ANOMALY":283.0992,"EPHEMERIS_TYPE":0,"CLASSIFICATION_TYPE":"U","NORAD_CAT_ID":60317,"ELEMENT_SET_NO":999,"REV_AT_EPOCH":6568,"BSTAR":-1.9389564e-5,"MEAN_MOTION_DOT":-9.33e-6,"MEAN_MOTION_DDOT":0},{"OBJECT_NAME":"STARLINK-32190","OBJECT_ID":"2024-133T","EPOCH":"2025-09-20T13:20:30.949728","MEAN_MOTION":15.30218428,"ECCENTRICITY":0.00013153,"INCLINATION":53.1621,"RA_OF_ASC_NODE":7.2038,"ARG_OF_PERICENTER":84.7042,"MEAN_ANOMALY":275.4109,"EPHEMERIS_TYPE":0,"CLASSIFICATION_TYPE":"U","NORAD_CAT_ID":60318,"ELEMENT_SET_NO":999,"REV_AT_EPOCH":6559,"BSTAR":0.00018818444,"MEAN_MOTION_DOT":5.221e-5,"MEAN_MOTION_DDOT":0},{"OBJECT_NAME":"STARLINK-32182","OBJECT_ID":"2024-133U","EPOCH":"2025-09-20T13:35:45.415104","MEAN_MOTION":15.3018865,"ECCENTRICITY":0.00012105,"INCLINATION":53.1622,"RA_OF_ASC_NODE":7.2743,"ARG_OF_PERICENTER":85.5799,"MEAN_ANOMALY":274.534,"EPHEMERIS_TYPE":0,"CLASSIFICATION_TYPE":"U","NORAD_CAT_ID":60319,"ELEMENT_SET_NO":999,"REV_AT_EPOCH":6559,"BSTAR":3.9463375e-5,"MEAN_MOTION_DOT":8.09e-6,"MEAN_MOTION_DDOT":0},{"OBJECT_NAME":"STARLINK-32199","OBJECT_ID":"2024-133V","EPOCH":"2025-09-20T13:25:07.063392","MEAN_MOTION":15.30182232,"ECCENTRICITY":0.00012028,"INCLINATION":53.1625,"RA_OF_ASC_NODE":7.2253,"ARG_OF_PERICENTER":103.7369,"MEAN_ANOMALY":256.3766,"EPHEMERIS_TYPE":0,"CLASSIFICATION_TYPE":"U","NORAD_CAT_ID":60320,"ELEMENT_SET_NO":999,"REV_AT_EPOCH":6559,"BSTAR":0.00012331241,"MEAN_MOTION_DOT":3.293e-5,"MEAN_MOTION_DDOT":0},{"OBJECT_NAME":"STARLINK-32198","OBJECT_ID":"2024-133W","EPOCH":"2025-09-20T13:38:47.693184","MEAN_MOTION":15.30188955,"ECCENTRICITY":0.00013034,"INCLINATION":53.1614,"RA_OF_ASC_NODE":7.2826,"ARG_OF_PERICENTER":70.3801,"MEAN_ANOMALY":289.7341,"EPHEMERIS_TYPE":0,"CLASSIFICATION_TYPE":"U","NORAD_CAT_ID":60321,"ELEMENT_SET_NO":999,"REV_AT_EPOCH":6568,"BSTAR":5.6507632e-5,"MEAN_MOTION_DOT":1.314e-5,"MEAN_MOTION_DDOT":0},{"OBJECT_NAME":"STARLINK-31745","OBJECT_ID":"2024-136A","EPOCH":"2025-09-20T23:02:06.136800","MEAN_MOTION":15.30196849,"ECCENTRICITY":0.00010936,"INCLINATION":53.1601,"RA_OF_ASC_NODE":144.3679,"ARG_OF_PERICENTER":78.7207,"MEAN_ANOMALY":281.3917,"EPHEMERIS_TYPE":0,"CLASSIFICATION_TYPE":"U","NORAD_CAT_ID":60329,"ELEMENT_SET_NO":999,"REV_AT_EPOCH":6488,"BSTAR":2.1449586e-5,"MEAN_MOTION_DOT":2.76e-6,"MEAN_MOTION_DDOT":0},{"OBJECT_NAME":"STARLINK-32153","OBJECT_ID":"2024-136B","EPOCH":"2025-09-20T23:00:35.007264","MEAN_MOTION":15.30198974,"ECCENTRICITY":0.00011062,"INCLINATION":53.1599,"RA_OF_ASC_NODE":144.3612,"ARG_OF_PERICENTER":75.2249,"MEAN_ANOMALY":284.8874,"EPHEMERIS_TYPE":0,"CLASSIFICATION_TYPE":"U","NORAD_CAT_ID":60330,"ELEMENT_SET_NO":999,"REV_AT_EPOCH":6367,"BSTAR":5.3037334e-5,"MEAN_MOTION_DOT":1.212e-5,"MEAN_MOTION_DDOT":0},{"OBJECT_NAME":"STARLINK-32203","OBJECT_ID":"2024-136C","EPOCH":"2025-09-20T22:09:02.109312","MEAN_MOTION":15.30214827,"ECCENTRICITY":0.0001016,"INCLINATION":53.1599,"RA_OF_ASC_NODE":134.194,"ARG_OF_PERICENTER":98.2525,"MEAN_ANOMALY":261.8592,"EPHEMERIS_TYPE":0,"CLASSIFICATION_TYPE":"U","NORAD_CAT_ID":60331,"ELEMENT_SET_NO":999,"REV_AT_EPOCH":6381,"BSTAR":0.00013513247,"MEAN_MOTION_DOT":3.647e-5,"MEAN_MOTION_DDOT":0},{"OBJECT_NAME":"STARLINK-32171","OBJECT_ID":"2024-136D","EPOCH":"2025-09-20T21:49:10.142688","MEAN_MOTION":15.30185801,"ECCENTRICITY":8.809e-5,"INCLINATION":53.1585,"RA_OF_ASC_NODE":144.0593,"ARG_OF_PERICENTER":79.412,"MEAN_ANOMALY":280.698,"EPHEMERIS_TYPE":0,"CLASSIFICATION_TYPE":"U","NORAD_CAT_ID":60332,"ELEMENT_SET_NO":999,"REV_AT_EPOCH":6367,"BSTAR":0.00032472622,"MEAN_MOTION_DOT":9.266e-5,"MEAN_MOTION_DDOT":0},{"OBJECT_NAME":"STARLINK-32133","OBJECT_ID":"2024-136E","EPOCH":"2025-09-20T22:51:28.769184","MEAN_MOTION":15.30191639,"ECCENTRICITY":0.00012625,"INCLINATION":53.1604,"RA_OF_ASC_NODE":144.3225,"ARG_OF_PERICENTER":69.8533,"MEAN_ANOMALY":290.2604,"EPHEMERIS_TYPE":0,"CLASSIFICATION_TYPE":"U","NORAD_CAT_ID":60333,"ELEMENT_SET_NO":999,"REV_AT_EPOCH":6367,"BSTAR":7.5596525e-5,"MEAN_MOTION_DOT":1.88e-5,"MEAN_MOTION_DDOT":0},{"OBJECT_NAME":"STARLINK-32132","OBJECT_ID":"2024-136F","EPOCH":"2025-09-20T22:42:20.847168","MEAN_MOTION":15.30198947,"ECCENTRICITY":9.993e-5,"INCLINATION":53.16,"RA_OF_ASC_NODE":144.2813,"ARG_OF_PERICENTER":83.9099,"MEAN_ANOMALY":276.2015,"EPHEMERIS_TYPE":0,"CLASSIFICATION_TYPE":"U","NORAD_CAT_ID":60334,"ELEMENT_SET_NO":999,"REV_AT_EPOCH":6367,"BSTAR":2.534006e-5,"MEAN_MOTION_DOT":3.92e-6,"MEAN_MOTION_DDOT":0},{"OBJECT_NAME":"STARLINK-32168","OBJECT_ID":"2024-136G","EPOCH":"2025-09-20T22:37:47.205408","MEAN_MOTION":15.30197482,"ECCENTRICITY":0.00011732,"INCLINATION":53.1597,"RA_OF_ASC_NODE":144.2607,"ARG_OF_PERICENTER":61.5782,"MEAN_ANOMALY":298.5337,"EPHEMERIS_TYPE":0,"CLASSIFICATION_TYPE":"U","NORAD_CAT_ID":60335,"ELEMENT_SET_NO":999,"REV_AT_EPOCH":6367,"BSTAR":2.5575383e-5,"MEAN_MOTION_DOT":3.98e-6,"MEAN_MOTION_DDOT":0},{"OBJECT_NAME":"STARLINK-32079","OBJECT_ID":"2024-136H","EPOCH":"2025-09-20T22:33:13.906656","MEAN_MOTION":15.30191781,"ECCENTRICITY":0.00011218,"INCLINATION":53.1596,"RA_OF_ASC_NODE":144.2415,"ARG_OF_PERICENTER":78.8685,"MEAN_ANOMALY":281.2441,"EPHEMERIS_TYPE":0,"CLASSIFICATION_TYPE":"U","NORAD_CAT_ID":60336,"ELEMENT_SET_NO":999,"REV_AT_EPOCH":6367,"BSTAR":1.7059381e-5,"MEAN_MOTION_DOT":1.46e-6,"MEAN_MOTION_DDOT":0}]
